{"type": "FeatureCollection", "features": [{"type": "Feature", "properties": {"name": "3I", "layer": null}, "geometry": {"type": "Point", "coordinates": [46.7348842, 24.8741482]}}, {"type": "Feature", "properties": {"name": "3J", "layer": null}, "geometry": {"type": "Point", "coordinates": [46.7393709, 24.8757149]}}, {"type": "Feature", "properties": {"name": "3K", "layer": null}, "geometry": {"type": "Point", "coordinates": [46.7434013, 24.8768976]}}, {"type": "Feature", "properties": {"name": "3H", "layer": null}, "geometry": {"type": "Point", "coordinates": [46.7367251, 24.8701974]}}, {"type": "Feature", "properties": {"name": "3G", "layer": null}, "geometry": {"type": "Point", "coordinates": [46.7409461, 24.8726434]}}, {"type": "Feature", "properties": {"name": "3F", "layer": null}, "geometry": {"type": "Point", "coordinates": [46.7441845, 24.8742903]}}, {"type": "Feature", "properties": {"name": "3A", "layer": null}, "geometry": {"type": "Point", "coordinates": [46.7382538, 24.8653325]}}, {"type": "Feature", "properties": {"name": "3B", "layer": null}, "geometry": {"type": "Point", "coordinates": [46.7427375, 24.8671828]}}, {"type": "Feature", "properties": {"name": "3C", "layer": null}, "geometry": {"type": "Point", "coordinates": [46.746697, 24.8698282]}}, {"type": "Feature", "properties": {"name": "3D", "layer": null}, "geometry": {"type": "Point", "coordinates": [46.7495813, 24.8714606]}}, {"type": "Feature", "properties": {"name": "GATE 1", "layer": null}, "geometry": {"type": "Point", "coordinates": [46.7414799, 24.8403237]}}, {"type": "Feature", "properties": {"name": "GATE 2", "layer": null}, "geometry": {"type": "Point", "coordinates": [46.7733394, 24.862002]}}, {"type": "Feature", "properties": {"name": "GATE 4", "layer": null}, "geometry": {"type": "Point", "coordinates": [46.7304629, 24.8864109]}}, {"type": "Feature", "properties": {"name": "4J", "layer": null}, "geometry": {"type": "Point", "coordinates": [46.7293029, 24.8831143]}}, {"type": "Feature", "properties": {"name": "4K", "layer": null}, "geometry": {"type": "Point", "coordinates": [46.7332786, 24.8851964]}}, {"type": "Feature", "properties": {"name": "4L", "layer": null}, "geometry": {"type": "Point", "coordinates": [46.7373053, 24.8870883]}}, {"type": "Feature", "properties": {"name": "4M", "layer": null}, "geometry": {"type": "Point", "coordinates": [46.7404883, 24.8886078]}}, {"type": "Feature", "properties": {"name": "4G", "layer": null}, "geometry": {"type": "Point", "coordinates": [46.7314877, 24.879412]}}, {"type": "Feature", "properties": {"name": "4F", "layer": null}, "geometry": {"type": "Point", "coordinates": [46.7359195, 24.8812823]}}, {"type": "Feature", "properties": {"name": "4E", "layer": null}, "geometry": {"type": "Point", "coordinates": [46.7399025, 24.8830396]}}, {"type": "Feature", "properties": {"name": "4D", "layer": null}, "geometry": {"type": "Point", "coordinates": [46.7430639, 24.8845095]}}, {"type": "Feature", "properties": {"name": "4A", "layer": null}, "geometry": {"type": "Point", "coordinates": [46.7324723, 24.8766857]}}, {"type": "Feature", "properties": {"name": "4C", "layer": null}, "geometry": {"type": "Point", "coordinates": [46.743856, 24.8806495]}}, {"type": "Feature", "properties": {"name": "WADI", "layer": null}, "geometry": {"type": "Point", "coordinates": [46.7459784, 24.8787694]}}, {"type": "Feature", "properties": {"name": "2A-B", "layer": null}, "geometry": {"type": "Point", "coordinates": [46.735315, 24.8384218]}}, {"type": "Feature", "properties": {"name": "2A-C", "layer": null}, "geometry": {"type": "Point", "coordinates": [46.7372481, 24.8423825]}}, {"type": "Feature", "properties": {"name": "2A-D", "layer": null}, "geometry": {"type": "Point", "coordinates": [46.7430556, 24.8434269]}}, {"type": "Feature", "properties": {"name": "2A-E", "layer": null}, "geometry": {"type": "Point", "coordinates": [46.7473375, 24.8451468]}}, {"type": "Feature", "properties": {"name": "2A-F", "layer": null}, "geometry": {"type": "Point", "coordinates": [46.7439774, 24.8485561]}}, {"type": "Feature", "properties": {"name": "2A-G", "layer": null}, "geometry": {"type": "Point", "coordinates": [46.752629, 24.848749]}}, {"type": "Feature", "properties": {"name": "2A-H", "layer": null}, "geometry": {"type": "Point", "coordinates": [46.7581605, 24.8513441]}}, {"type": "Feature", "properties": {"name": "2B-A1", "layer": null}, "geometry": {"type": "Point", "coordinates": [46.7546128, 24.855333]}}, {"type": "Feature", "properties": {"name": "2B-A2", "layer": null}, "geometry": {"type": "Point", "coordinates": [46.7558468, 24.8594916]}}, {"type": "Feature", "properties": {"name": "2B-A3", "layer": null}, "geometry": {"type": "Point", "coordinates": [46.7577383, 24.8578362]}}, {"type": "Feature", "properties": {"name": "2B-B1", "layer": null}, "geometry": {"type": "Point", "coordinates": [46.7574064, 24.8640267]}}, {"type": "Feature", "properties": {"name": "2B-B2", "layer": null}, "geometry": {"type": "Point", "coordinates": [46.7606679, 24.8672833]}}, {"type": "Feature", "properties": {"name": "2B-C", "layer": null}, "geometry": {"type": "Point", "coordinates": [46.7659654, 24.8699214]}}, {"type": "Feature", "properties": {"name": "2B-D1", "layer": null}, "geometry": {"type": "Point", "coordinates": [46.7600257, 24.8628941]}}, {"type": "Feature", "properties": {"name": "2B-D2", "layer": null}, "geometry": {"type": "Point", "coordinates": [46.7631944, 24.8644114]}}, {"type": "Feature", "properties": {"name": "2B-E", "layer": null}, "geometry": {"type": "Point", "coordinates": [46.7612722, 24.8587569]}}, {"type": "Feature", "properties": {"name": "2B-F1", "layer": null}, "geometry": {"type": "Point", "coordinates": [46.7657516, 24.8616192]}}, {"type": "Feature", "properties": {"name": "2B-F2", "layer": null}, "geometry": {"type": "Point", "coordinates": [46.7689574, 24.8648105]}}, {"type": "Feature", "properties": {"name": "2B-G", "layer": null}, "geometry": {"type": "Point", "coordinates": [46.7702876, 24.8621798]}}, {"type": "Feature", "properties": {"name": "PHASE 6", "layer": null}, "geometry": {"type": "Point", "coordinates": [46.7736162, 24.8726545]}}, {"type": "Feature", "properties": {"name": "PHASE 8", "layer": null}, "geometry": {"type": "Point", "coordinates": [46.7591293, 24.8789742]}}, {"type": "Feature", "properties": {"name": "PHASE 7", "layer": null}, "geometry": {"type": "Point", "coordinates": [46.7704888, 24.8806637]}}, {"type": "Feature", "properties": {"name": "PHASE 5", "layer": null}, "geometry": {"type": "Point", "coordinates": [46.7483632, 24.8878976]}}, {"type": "Feature", "properties": {"name": "PHASE 1", "layer": null}, "geometry": {"type": "Point", "coordinates": [46.7463724, 24.8592439]}}, {"type": "Feature", "properties": {"name": "Main office", "layer": null}, "geometry": {"type": "Point", "coordinates": [46.7608254, 24.8600841]}}, {"type": "Feature", "properties": {"name": "3.4.5office", "layer": null}, "geometry": {"type": "Point", "coordinates": [46.7518765, 24.8819241]}}, {"type": "Feature", "properties": {"name": "Client office", "layer": null}, "geometry": {"type": "Point", "coordinates": [46.7583857, 24.8701544]}}]}